OBJECT C                
1 57582U 23117C   25214.15392004  .00008320  00000+0  31947-3 0  9998
2 57582  97.4423 288.8988 0007194 297.8628  62.1881 15.26687738109685
